{
    "links": {
        "self": "http://www.neowsapp.com/rest/v1/neo/3114018?api_key=iIulBulltgU6a56xZRHN4H3l9WmuAYTsLGpBGhQ2"
    },
    "id": "3114018",
    "neo_reference_id": "3114018",
    "name": "(2002 CS11)",
    "designation": "2002 CS11",
    "nasa_jpl_url": "http://ssd.jpl.nasa.gov/sbdb.cgi?sstr=3114018",
    "absolute_magnitude_h": 21.4,
    "estimated_diameter": {
        "kilometers": {
            "estimated_diameter_min": 0.1394938229,
            "estimated_diameter_max": 0.3119176705
        },
        "meters": {
            "estimated_diameter_min": 139.4938229344,
            "estimated_diameter_max": 311.9176705226
        },
        "miles": {
            "estimated_diameter_min": 0.0866774163,
            "estimated_diameter_max": 0.1938165949
        },
        "feet": {
            "estimated_diameter_min": 457.6569140361,
            "estimated_diameter_max": 1023.3519701574
        }
    },
    "is_potentially_hazardous_asteroid": false,
    "close_approach_data": [
        {
            "close_approach_date": "1979-02-17",
            "close_approach_date_full": "1979-Feb-17 01:17",
            "epoch_date_close_approach": 288062220000,
            "relative_velocity": {
                "kilometers_per_second": "6.156171037",
                "kilometers_per_hour": "22162.215733104",
                "miles_per_hour": "13770.7389926056"
            },
            "miss_distance": {
                "astronomical": "0.2769139852",
                "lunar": "107.7195402428",
                "kilometers": "41425742.359131524",
                "miles": "25740762.6869380712"
            },
            "orbiting_body": "Earth"
        },
        {
            "close_approach_date": "2002-02-24",
            "close_approach_date_full": "2002-Feb-24 00:24",
            "epoch_date_close_approach": 1014510240000,
            "relative_velocity": {
                "kilometers_per_second": "5.5719652001",
                "kilometers_per_hour": "20059.0747204326",
                "miles_per_hour": "12463.9289561488"
            },
            "miss_distance": {
                "astronomical": "0.2235578998",
                "lunar": "86.9640230222",
                "kilometers": "33443785.631753426",
                "miles": "20781004.7635762388"
            },
            "orbiting_body": "Earth"
        }
    ],
    "orbital_data": {
        "orbit_id": "17",
        "orbit_determination_date": "2017-04-06 09:15:29",
        "first_observation_date": "2002-02-06",
        "last_observation_date": "2002-04-08",
        "data_arc_in_days": 61,
        "observations_used": 53,
        "orbit_uncertainty": "6",
        "minimum_orbit_intersection": ".219319",
        "jupiter_tisserand_invariant": "3.700",
        "epoch_osculation": "2459000.5",
        "eccentricity": ".4044784302079568",
        "semi_major_axis": "2.019094154404962",
        "inclination": "9.819298113983171",
        "ascending_node_longitude": "346.2206170763619",
        "orbital_period": "1047.932438447198",
        "perihelion_distance": "1.202414120389181",
        "perihelion_argument": "160.4161561208971",
        "aphelion_distance": "2.835774188420743",
        "perihelion_time": "2458606.444870525163",
        "mean_anomaly": "135.3711760475189",
        "mean_motion": ".3435335970069213",
        "equinox": "J2000",
        "orbit_class": {
            "orbit_class_type": "AMO",
            "orbit_class_description": "Near-Earth asteroid orbits similar to that of 1221 Amor",
            "orbit_class_range": "1.017 AU < q (perihelion) < 1.3 AU"
        }
    },
    "is_sentry_object": false
}